<?xml version="1.0" encoding="UTF-8"?>
<ndm xmlns:xsi="http://www.w3.org/2001/XMLSchema-instance" xsi:noNamespaceSchemaLocation="https://sanaregistry.org/r/ndmxml_unqualified/ndmxml-2.0.0-master-2.0.xsd">
<omm id="CCSDS_OMM_VERS" version="2.0">
<header><CREATION_DATE/><ORIGINATOR/></header><body><segment><metadata><OBJECT_NAME>KUIPER-00039</OBJECT_NAME><OBJECT_ID>2025-134A</OBJECT_ID><CENTER_NAME>EARTH</CENTER_NAME><REF_FRAME>TEME</REF_FRAME><TIME_SYSTEM>UTC</TIME_SYSTEM><MEAN_ELEMENT_THEORY>SGP4</MEAN_ELEMENT_THEORY></metadata><data><meanElements><EPOCH>2025-12-05T13:22:55.763040</EPOCH><MEAN_MOTION>14.80257186</MEAN_MOTION><ECCENTRICITY>.00116672</ECCENTRICITY><INCLINATION>51.9015</INCLINATION><RA_OF_ASC_NODE>289.2938</RA_OF_ASC_NODE><ARG_OF_PERICENTER>343.7730</ARG_OF_PERICENTER><MEAN_ANOMALY>16.2858</MEAN_ANOMALY></meanElements><tleParameters><EPHEMERIS_TYPE>0</EPHEMERIS_TYPE><CLASSIFICATION_TYPE>U</CLASSIFICATION_TYPE><NORAD_CAT_ID>64500</NORAD_CAT_ID><ELEMENT_SET_NO>999</ELEMENT_SET_NO><REV_AT_EPOCH>2613</REV_AT_EPOCH><BSTAR>.11010311E-2</BSTAR><MEAN_MOTION_DOT>.8254E-4</MEAN_MOTION_DOT><MEAN_MOTION_DDOT>0</MEAN_MOTION_DDOT></tleParameters></data></segment></body></omm>
<omm id="CCSDS_OMM_VERS" version="2.0">
<header><CREATION_DATE/><ORIGINATOR/></header><body><segment><metadata><OBJECT_NAME>KUIPER-00040</OBJECT_NAME><OBJECT_ID>2025-134B</OBJECT_ID><CENTER_NAME>EARTH</CENTER_NAME><REF_FRAME>TEME</REF_FRAME><TIME_SYSTEM>UTC</TIME_SYSTEM><MEAN_ELEMENT_THEORY>SGP4</MEAN_ELEMENT_THEORY></metadata><data><meanElements><EPOCH>2025-12-05T14:47:12.054336</EPOCH><MEAN_MOTION>14.79975465</MEAN_MOTION><ECCENTRICITY>.00172187</ECCENTRICITY><INCLINATION>51.9004</INCLINATION><RA_OF_ASC_NODE>300.2300</RA_OF_ASC_NODE><ARG_OF_PERICENTER>318.2621</ARG_OF_PERICENTER><MEAN_ANOMALY>41.7027</MEAN_ANOMALY></meanElements><tleParameters><EPHEMERIS_TYPE>0</EPHEMERIS_TYPE><CLASSIFICATION_TYPE>U</CLASSIFICATION_TYPE><NORAD_CAT_ID>64501</NORAD_CAT_ID><ELEMENT_SET_NO>999</ELEMENT_SET_NO><REV_AT_EPOCH>2598</REV_AT_EPOCH><BSTAR>.71352608E-3</BSTAR><MEAN_MOTION_DOT>.5237E-4</MEAN_MOTION_DOT><MEAN_MOTION_DDOT>0</MEAN_MOTION_DDOT></tleParameters></data></segment></body></omm>
<omm id="CCSDS_OMM_VERS" version="2.0">
<header><CREATION_DATE/><ORIGINATOR/></header><body><segment><metadata><OBJECT_NAME>KUIPER-00041</OBJECT_NAME><OBJECT_ID>2025-134C</OBJECT_ID><CENTER_NAME>EARTH</CENTER_NAME><REF_FRAME>TEME</REF_FRAME><TIME_SYSTEM>UTC</TIME_SYSTEM><MEAN_ELEMENT_THEORY>SGP4</MEAN_ELEMENT_THEORY></metadata><data><meanElements><EPOCH>2025-12-05T14:45:44.557920</EPOCH><MEAN_MOTION>14.79985836</MEAN_MOTION><ECCENTRICITY>.00136824</ECCENTRICITY><INCLINATION>51.8996</INCLINATION><RA_OF_ASC_NODE>301.5889</RA_OF_ASC_NODE><ARG_OF_PERICENTER>316.9923</ARG_OF_PERICENTER><MEAN_ANOMALY>42.9969</MEAN_ANOMALY></meanElements><tleParameters><EPHEMERIS_TYPE>0</EPHEMERIS_TYPE><CLASSIFICATION_TYPE>U</CLASSIFICATION_TYPE><NORAD_CAT_ID>64502</NORAD_CAT_ID><ELEMENT_SET_NO>999</ELEMENT_SET_NO><REV_AT_EPOCH>2596</REV_AT_EPOCH><BSTAR>.14461159E-2</BSTAR><MEAN_MOTION_DOT>.10848E-3</MEAN_MOTION_DOT><MEAN_MOTION_DDOT>0</MEAN_MOTION_DDOT></tleParameters></data></segment></body></omm>
<omm id="CCSDS_OMM_VERS" version="2.0">
<header><CREATION_DATE/><ORIGINATOR/></header><body><segment><metadata><OBJECT_NAME>KUIPER-00042</OBJECT_NAME><OBJECT_ID>2025-134D</OBJECT_ID><CENTER_NAME>EARTH</CENTER_NAME><REF_FRAME>TEME</REF_FRAME><TIME_SYSTEM>UTC</TIME_SYSTEM><MEAN_ELEMENT_THEORY>SGP4</MEAN_ELEMENT_THEORY></metadata><data><meanElements><EPOCH>2025-12-05T14:51:11.598336</EPOCH><MEAN_MOTION>14.79954231</MEAN_MOTION><ECCENTRICITY>.00122822</ECCENTRICITY><INCLINATION>51.9011</INCLINATION><RA_OF_ASC_NODE>297.5762</RA_OF_ASC_NODE><ARG_OF_PERICENTER>324.5556</ARG_OF_PERICENTER><MEAN_ANOMALY>35.4589</MEAN_ANOMALY></meanElements><tleParameters><EPHEMERIS_TYPE>0</EPHEMERIS_TYPE><CLASSIFICATION_TYPE>U</CLASSIFICATION_TYPE><NORAD_CAT_ID>64503</NORAD_CAT_ID><ELEMENT_SET_NO>999</ELEMENT_SET_NO><REV_AT_EPOCH>2602</REV_AT_EPOCH><BSTAR>-.36122662E-4</BSTAR><MEAN_MOTION_DOT>-.5E-5</MEAN_MOTION_DOT><MEAN_MOTION_DDOT>0</MEAN_MOTION_DDOT></tleParameters></data></segment></body></omm>
<omm id="CCSDS_OMM_VERS" version="2.0">
<header><CREATION_DATE/><ORIGINATOR/></header><body><segment><metadata><OBJECT_NAME>KUIPER-00043</OBJECT_NAME><OBJECT_ID>2025-134E</OBJECT_ID><CENTER_NAME>EARTH</CENTER_NAME><REF_FRAME>TEME</REF_FRAME><TIME_SYSTEM>UTC</TIME_SYSTEM><MEAN_ELEMENT_THEORY>SGP4</MEAN_ELEMENT_THEORY></metadata><data><meanElements><EPOCH>2025-12-05T13:25:32.705184</EPOCH><MEAN_MOTION>14.79976323</MEAN_MOTION><ECCENTRICITY>.00035823</ECCENTRICITY><INCLINATION>51.9034</INCLINATION><RA_OF_ASC_NODE>290.2829</RA_OF_ASC_NODE><ARG_OF_PERICENTER>341.8459</ARG_OF_PERICENTER><MEAN_ANOMALY>18.2375</MEAN_ANOMALY></meanElements><tleParameters><EPHEMERIS_TYPE>0</EPHEMERIS_TYPE><CLASSIFICATION_TYPE>U</CLASSIFICATION_TYPE><NORAD_CAT_ID>64504</NORAD_CAT_ID><ELEMENT_SET_NO>999</ELEMENT_SET_NO><REV_AT_EPOCH>2612</REV_AT_EPOCH><BSTAR>.69137374E-3</BSTAR><MEAN_MOTION_DOT>.5058E-4</MEAN_MOTION_DOT><MEAN_MOTION_DDOT>0</MEAN_MOTION_DDOT></tleParameters></data></segment></body></omm>
<omm id="CCSDS_OMM_VERS" version="2.0">
<header><CREATION_DATE/><ORIGINATOR/></header><body><segment><metadata><OBJECT_NAME>KUIPER-00044</OBJECT_NAME><OBJECT_ID>2025-134F</OBJECT_ID><CENTER_NAME>EARTH</CENTER_NAME><REF_FRAME>TEME</REF_FRAME><TIME_SYSTEM>UTC</TIME_SYSTEM><MEAN_ELEMENT_THEORY>SGP4</MEAN_ELEMENT_THEORY></metadata><data><meanElements><EPOCH>2025-12-05T14:43:20.700192</EPOCH><MEAN_MOTION>14.79993508</MEAN_MOTION><ECCENTRICITY>.00110983</ECCENTRICITY><INCLINATION>51.9011</INCLINATION><RA_OF_ASC_NODE>302.5981</RA_OF_ASC_NODE><ARG_OF_PERICENTER>322.8111</ARG_OF_PERICENTER><MEAN_ANOMALY>37.2082</MEAN_ANOMALY></meanElements><tleParameters><EPHEMERIS_TYPE>0</EPHEMERIS_TYPE><CLASSIFICATION_TYPE>U</CLASSIFICATION_TYPE><NORAD_CAT_ID>64505</NORAD_CAT_ID><ELEMENT_SET_NO>999</ELEMENT_SET_NO><REV_AT_EPOCH>2595</REV_AT_EPOCH><BSTAR>.1476679E-2</BSTAR><MEAN_MOTION_DOT>.11079E-3</MEAN_MOTION_DOT><MEAN_MOTION_DDOT>0</MEAN_MOTION_DDOT></tleParameters></data></segment></body></omm>
<omm id="CCSDS_OMM_VERS" version="2.0">
<header><CREATION_DATE/><ORIGINATOR/></header><body><segment><metadata><OBJECT_NAME>KUIPER-00046</OBJECT_NAME><OBJECT_ID>2025-134G</OBJECT_ID><CENTER_NAME>EARTH</CENTER_NAME><REF_FRAME>TEME</REF_FRAME><TIME_SYSTEM>UTC</TIME_SYSTEM><MEAN_ELEMENT_THEORY>SGP4</MEAN_ELEMENT_THEORY></metadata><data><meanElements><EPOCH>2025-12-05T14:41:33.826848</EPOCH><MEAN_MOTION>14.80460938</MEAN_MOTION><ECCENTRICITY>.00122859</ECCENTRICITY><INCLINATION>51.9002</INCLINATION><RA_OF_ASC_NODE>299.0129</RA_OF_ASC_NODE><ARG_OF_PERICENTER>333.7656</ARG_OF_PERICENTER><MEAN_ANOMALY>26.2683</MEAN_ANOMALY></meanElements><tleParameters><EPHEMERIS_TYPE>0</EPHEMERIS_TYPE><CLASSIFICATION_TYPE>U</CLASSIFICATION_TYPE><NORAD_CAT_ID>64506</NORAD_CAT_ID><ELEMENT_SET_NO>999</ELEMENT_SET_NO><REV_AT_EPOCH>2600</REV_AT_EPOCH><BSTAR>.15117541E-2</BSTAR><MEAN_MOTION_DOT>.1148E-3</MEAN_MOTION_DOT><MEAN_MOTION_DDOT>0</MEAN_MOTION_DDOT></tleParameters></data></segment></body></omm>
<omm id="CCSDS_OMM_VERS" version="2.0">
<header><CREATION_DATE/><ORIGINATOR/></header><body><segment><metadata><OBJECT_NAME>KUIPER-00047</OBJECT_NAME><OBJECT_ID>2025-134H</OBJECT_ID><CENTER_NAME>EARTH</CENTER_NAME><REF_FRAME>TEME</REF_FRAME><TIME_SYSTEM>UTC</TIME_SYSTEM><MEAN_ELEMENT_THEORY>SGP4</MEAN_ELEMENT_THEORY></metadata><data><meanElements><EPOCH>2025-12-05T12:56:26.260512</EPOCH><MEAN_MOTION>14.82892256</MEAN_MOTION><ECCENTRICITY>.00083633</ECCENTRICITY><INCLINATION>51.8988</INCLINATION><RA_OF_ASC_NODE>271.1370</RA_OF_ASC_NODE><ARG_OF_PERICENTER>348.6751</ARG_OF_PERICENTER><MEAN_ANOMALY>11.4024</MEAN_ANOMALY></meanElements><tleParameters><EPHEMERIS_TYPE>0</EPHEMERIS_TYPE><CLASSIFICATION_TYPE>U</CLASSIFICATION_TYPE><NORAD_CAT_ID>64507</NORAD_CAT_ID><ELEMENT_SET_NO>999</ELEMENT_SET_NO><REV_AT_EPOCH>2638</REV_AT_EPOCH><BSTAR>.10130595E-2</BSTAR><MEAN_MOTION_DOT>.8076E-4</MEAN_MOTION_DOT><MEAN_MOTION_DDOT>0</MEAN_MOTION_DDOT></tleParameters></data></segment></body></omm>
<omm id="CCSDS_OMM_VERS" version="2.0">
<header><CREATION_DATE/><ORIGINATOR/></header><body><segment><metadata><OBJECT_NAME>KUIPER-00048</OBJECT_NAME><OBJECT_ID>2025-134J</OBJECT_ID><CENTER_NAME>EARTH</CENTER_NAME><REF_FRAME>TEME</REF_FRAME><TIME_SYSTEM>UTC</TIME_SYSTEM><MEAN_ELEMENT_THEORY>SGP4</MEAN_ELEMENT_THEORY></metadata><data><meanElements><EPOCH>2025-12-05T12:17:50.871840</EPOCH><MEAN_MOTION>14.79955896</MEAN_MOTION><ECCENTRICITY>.00023013</ECCENTRICITY><INCLINATION>51.9004</INCLINATION><RA_OF_ASC_NODE>272.0346</RA_OF_ASC_NODE><ARG_OF_PERICENTER>103.3619</ARG_OF_PERICENTER><MEAN_ANOMALY>256.7600</MEAN_ANOMALY></meanElements><tleParameters><EPHEMERIS_TYPE>0</EPHEMERIS_TYPE><CLASSIFICATION_TYPE>U</CLASSIFICATION_TYPE><NORAD_CAT_ID>64508</NORAD_CAT_ID><ELEMENT_SET_NO>999</ELEMENT_SET_NO><REV_AT_EPOCH>2637</REV_AT_EPOCH><BSTAR>.27507369E-3</BSTAR><MEAN_MOTION_DOT>.1877E-4</MEAN_MOTION_DOT><MEAN_MOTION_DDOT>0</MEAN_MOTION_DDOT></tleParameters></data></segment></body></omm>

</ndm>
